GPS BIIR-2  (PRN 13)    
1 24876U 97035A   22302.97918779  .00000058  00000+0  00000+0 0  9998
2 24876  55.5273 150.4245 0064304  53.0995 307.5663  2.00563363185355
GPS BIIR-4  (PRN 20)    
1 26360U 00025A   22303.88803333 -.00000007  00000+0  00000+0 0  9996
2 26360  54.1724  73.2790 0047901 187.8438 199.9230  2.00562747164692
GPS BIIR-6  (PRN 22)    
1 26605U 00071A   22303.69184961  .00000058  00000+0  00000+0 0  9992
2 26605  55.1138 147.3312 0137032 254.5524 115.7417  2.00554236160930
GPS BIIR-8  (PRN 16)    
1 27663U 03005A   22303.92418580  .00000009  00000+0  00000+0 0  9996
2 27663  55.4266 267.6786 0127839  41.3625 348.9001  2.00556481144732
GPS BIIR-9  (PRN 21)    
1 27704U 03010A   22303.63398924 -.00000086  00000+0  00000+0 0  9991
2 27704  55.0656  17.8407 0246413 309.3662  87.1787  2.00562038143524
GPS BIIR-11 (PRN 19)    
1 28190U 04009A   22303.91468017 -.00000044  00000+0  00000+0 0  9996
2 28190  55.9179 328.6930 0088652 127.2120  50.6348  2.00557182136368
GPS BIIR-13 (PRN 02)    
1 28474U 04045A   22303.86234013 -.00000087  00000+0  00000+0 0  9999
2 28474  55.3913  18.0245 0203542 280.3825  76.7128  2.00421158131848
GPS BIIRM-1 (PRN 17)    
1 28874U 05038A   22303.09550292 -.00000040  00000+0  00000+0 0  9990
2 28874  55.9793 326.1649 0140686 275.9254  58.8182  2.00567022125238
GPS BIIRM-2 (PRN 31)    
1 29486U 06042A   22303.50344762  .00000011  00000+0  00000+0 0  9992
2 29486  54.7010 203.9091 0105636  24.8489 158.3565  2.00571073117803
GPS BIIRM-3 (PRN 12)    
1 29601U 06052A   22302.20008657  .00000016  00000+0  00000+0 0  9993
2 29601  55.4387 266.6907 0083426  75.0208 285.8878  2.00558150116799
GPS BIIRM-4 (PRN 15)    
1 32260U 07047A   22303.00325112  .00000059  00000+0  00000+0 0  9997
2 32260  53.3518 134.9658 0144840  65.6525 295.9100  2.00567613110217
GPS BIIRM-5 (PRN 29)    
1 32384U 07062A   22302.57514008 -.00000040  00000+0  00000+0 0  9997
2 32384  56.1027 326.9645 0020174 147.3370  31.1644  2.00569200108908
GPS BIIRM-6 (PRN 07)    
1 32711U 08012A   22303.41827529  .00000012  00000+0  00000+0 0  9994
2 32711  54.4631 202.8165 0166142 232.2263 126.3240  2.00568768107168
GPS BIIRM-8 (PRN 05)    
1 35752U 09043A   22303.39692152  .00000009  00000+0  00000+0 0  9992
2 35752  55.1795  80.1010 0057435  64.2885 292.1629  2.00577185 96767
GPS BIIF-1  (PRN 25)    
1 36585U 10022A   22303.27729334  .00000012  00000+0  00000+0 0  9990
2 36585  54.7254 262.0736 0105136  56.7857 335.5570  2.00572154 91000
GPS BIIF-2  (PRN 01)    
1 37753U 11036A   22303.61416080 -.00000082  00000+0  00000+0 0  9991
2 37753  56.6597  23.4498 0118301  53.4169 304.5463  2.00565975 82685
GPS BIIF-3  (PRN 24)    
1 38833U 12053A   22303.60124284  .00000011  00000+0  00000+0 0  9993
2 38833  53.5197 197.8196 0131395  48.2730 312.9155  2.00563365 72852
GPS BIIF-4  (PRN 27)    
1 39166U 13023A   22303.45942090 -.00000035  00000+0  00000+0 0  9994
2 39166  55.6020 322.4703 0105535  38.1604 322.6215  2.00565174 69283
GPS BIIF-5  (PRN 30)    
1 39533U 14008A   22303.46240538  .00000010  00000+0  00000+0 0  9997
2 39533  53.6115 203.3461 0060447 209.3966 150.3274  2.00560972 63092
GPS BIIF-6  (PRN 06)    
1 39741U 14026A   22303.74311506 -.00000083  00000+0  00000+0 0  9994
2 39741  56.6190  22.9702 0027572 304.4719  55.3092  2.00578811 61953
GPS BIIF-7  (PRN 09)    
1 40105U 14045A   22302.83169558  .00000061  00000+0  00000+0 0  9993
2 40105  54.7213 141.4379 0024042 111.8726 248.4495  2.00556286 59476
GPS BIIF-8  (PRN 03)    
1 40294U 14068A   22301.20350662  .00000012  00000+0  00000+0 0  9991
2 40294  55.9210  82.6966 0042570  58.7289 301.6760  2.00550611 58575
GPS BIIF-9  (PRN 26)    
1 40534U 15013A   22303.84036828  .00000005  00000+0  00000+0 0  9998
2 40534  53.6249 259.0844 0072867  20.5949 339.6888  2.00573697 55248
GPS BIIF-10 (PRN 08)    
1 40730U 15033A   22303.49929892 -.00000035  00000+0  00000+0 0  9995
2 40730  55.0972 321.2326 0076651   7.6066 352.5455  2.00570996 53424
GPS BIIF-11 (PRN 10)    
1 41019U 15062A   22302.05432043  .00000013  00000+0  00000+0 0  9991
2 41019  55.9090  82.5087 0082475 217.7880 141.6222  2.00562414 51215
GPS BIIF-12 (PRN 32)    
1 41328U 16007A   22302.14176657  .00000064  00000+0  00000+0 0  9996
2 41328  54.9348 142.1691 0063363 229.6195 129.8954  2.00564465 49229
GPS BIII-1  (PRN 04)    
1 43873U 18109A   22303.04459002  .00000060  00000+0  00000+0 0  9992
2 43873  55.1138 144.5816 0021380 187.3858 356.1290  2.00555479 28477
GPS BIII-2  (PRN 18)    
1 44506U 19056A   22303.65791411 -.00000083  00000+0  00000+0 0  9994
2 44506  55.7345  23.6795 0029395 183.2224 343.4307  2.00558582 23488
GPS BIII-3  (PRN 23)    
1 45854U 20041A   22303.62725765  .00000012  00000+0  00000+0 0  9994
2 45854  55.6296  80.9484 0028139 179.7599 263.4938  2.00568418 17450
GPS BIII-4  (PRN 14)    
1 46826U 20078A   22303.73196044  .00000008  00000+0  00000+0 0  9993
2 46826  54.4848 264.6037 0023973 191.6163 303.9407  2.00564901 14929
GPS BIII-5  (PRN 11)    
1 48859U 21054A   22303.93117785 -.00000084  00000+0  00000+0 0  9998
2 48859  55.2439  25.6020 0008621 205.3519 259.0832  2.00565264 10179
